{"version": 0.6, "generator": "Overpass API 0.7.61.5 4133829e", "osm3s": {"timestamp_osm_base": "2024-02-25T03:59:15Z", "copyright": "The data included in this document is from www.openstreetmap.org. The data is made available under ODbL."}, "elements": [{"type": "node", "id": 470881976, "lat": 34.0448335, "lon": -118.2495584, "tags": {"addr:city": "Los Angeles", "addr:housenumber": "118", "addr:state": "CA", "addr:street": "East 6th Street", "alt_name": "Cole's;Cole's Pacific Electric Buffet", "amenity": "restaurant", "historic": "restaurant", "name": "Cole's P.E. Buffet", "website": "https://www.colesfrenchdip.com/", "wheelchair": "no", "wikipedia": "en:Cole's Pacific Electric Buffet"}}, {"type": "node", "id": 470881995, "lat": 34.047039, "lon": -118.256567, "tags": {"air_conditioning": "yes", "amenity": "restaurant", "bar": "yes", "cuisine": "italian", "name": "Bottega Louie", "outdoor_seating": "no", "reservation": "yes", "smoking": "no", "takeaway": "yes", "toilets": "yes", "wheelchair": "yes"}}, {"type": "node", "id": 470891322, "lat": 34.0449001, "lon": -118.253359, "tags": {"amenity": "fast_food", "branch": "\u00ae", "brand": "Carl's Jr.", "brand:wikidata": "Q1043486", "cuisine": "burger", "name": "Carl's Jr.", "takeaway": "yes", "website": "https://locations.carlsjr.com/ca/los-angeles/229-w-7th-street"}}, {"type": "node", "id": 471255269, "lat": 34.051302, "lon": -118.2570963, "tags": {"amenity": "restaurant", "name": "Drago Centro", "name:zh": "Drago Ristorante\u610f\u5927\u5229\u9910\u5385"}}, {"type": "node", "id": 471255286, "lat": 34.0492588, "lon": -118.2563746, "tags": {"amenity": "restaurant", "name": "Wolfgang Puck"}}, {"type": "node", "id": 471255287, "lat": 34.0490405, "lon": -118.2560063, "tags": {"amenity": "fast_food", "brand": "Subway", "brand:wikidata": "Q244457", "cuisine": "sandwich", "name": "Subway", "operator": "Subway", "takeaway": "yes"}}, {"type": "node", "id": 471255290, "lat": 34.0511811, "lon": -118.2558175, "tags": {"amenity": "restaurant", "name": "Cafe Pinot"}}, {"type": "node", "id": 471255295, "lat": 34.049965, "lon": -118.2573452, "tags": {"addr:housename": "Pegasus Building", "amenity": "restaurant", "cuisine": "american", "name": "Daily Grill"}}, {"type": "node", "id": 553094391, "lat": 34.0482445, "lon": -118.2480655, "tags": {"addr:country": "US", "amenity": "fast_food", "cuisine": "pizza", "name": "PI^LA"}}, {"type": "node", "id": 607992174, "lat": 34.0511181, "lon": -118.2475744, "tags": {"amenity": "fast_food", "brand": "Carl's Jr.", "brand:wikidata": "Q1043486", "cuisine": "burger", "name": "Carl's Jr.", "source": "survey;image;usgs_imagery", "source_ref": "AM909_DSCR0364", "takeaway": "yes", "website": "https://locations.carlsjr.com/ca/los-angeles/254-s-broadway"}}, {"type": "node", "id": 607992175, "lat": 34.0509146, "lon": -118.247615, "tags": {"amenity": "fast_food", "brand": "Sbarro", "brand:wikidata": "Q2589409", "cuisine": "pizza", "name": "Sbarro", "source": "survey;image;usgs_imagery", "source_ref": "AM909_DSCR0364", "takeaway": "yes"}}, {"type": "node", "id": 607992176, "lat": 34.0509782, "lon": -118.2477031, "tags": {"amenity": "fast_food", "brand": "El Pollo Loco", "brand:wikidata": "Q2353849", "cuisine": "mexican", "fax": "213-626-4572", "name": "El Pollo Loco", "opening_hours": "10:00-23:00", "phone": "213-626-7975", "source": "survey;image;usgs_imagery", "source_ref": "AM909_DSCR0364", "takeaway": "yes", "website": "https://www.elpolloloco.com/"}}, {"type": "node", "id": 853984748, "lat": 34.046284, "lon": -118.249232, "tags": {"amenity": "restaurant", "name": "Majestic Malt Shop"}}, {"type": "node", "id": 1584088933, "lat": 34.0475188, "lon": -118.2566694, "tags": {"addr:housenumber": "601", "addr:postcode": "90017", "addr:street": "W. 7th St.", "amenity": "fast_food", "brand": "Chipotle", "brand:wikidata": "Q465751", "cuisine": "mexican", "name": "Chipotle", "official_name": "Chipotle Mexican Grill", "takeaway": "yes", "website": "https://chipotle.com/"}}, {"type": "node", "id": 1584090340, "lat": 34.0473499, "lon": -118.256999, "tags": {"addr:city": "Los Angeles", "addr:housenumber": "600", "addr:postcode": "90017", "addr:state": "CA", "addr:street": "West 7th Street", "addr:unit": "150", "amenity": "restaurant", "branch": "Downtown", "cuisine": "sushi", "name": "Sugarfish", "website": "https://sugarfishsushi.com/"}}, {"type": "node", "id": 1738802895, "lat": 34.0459981, "lon": -118.248945, "tags": {"addr:city": "Los Angeles", "addr:housenumber": "524", "addr:postcode": "90013", "addr:street": "South Main Street", "amenity": "restaurant", "cuisine": "american", "name": "Nickel Diner", "opening_hours": "Tu-Su 08:00-15:30,18:00-22:00", "wheelchair": "limited", "wikidata": "Q7028252"}}, {"type": "node", "id": 1738802899, "lat": 34.049798, "lon": -118.2479742, "tags": {"amenity": "restaurant", "name": "First Cup Caffe"}}, {"type": "node", "id": 2096811531, "lat": 34.0473895, "lon": -118.24769, "tags": {"addr:state": "CA", "amenity": "restaurant", "name": "Blossom", "wheelchair": "yes"}}, {"type": "node", "id": 2096811589, "lat": 34.0477861, "lon": -118.2473359, "tags": {"addr:housenumber": "408", "addr:state": "CA", "addr:street": "South Main Street", "alt_name": "Baco Merkat", "amenity": "restaurant", "name": "B\u00e4co Mercat", "opening_hours": "Mo-Th 11:30-14:30, 17:30-23:00; Fr, Sa 11:30-15:00, 17:30-00:00; Su 11:30-15:00, 17:00-22:00", "phone": "+12136878808", "website": "http://www.bacomercat.com", "wheelchair": "limited"}}, {"type": "node", "id": 2163606664, "lat": 34.0469647, "lon": -118.252315, "tags": {"addr:housenumber": "311", "addr:street": "6th Street", "amenity": "fast_food", "cuisine": "chicken", "name": "Sultan Chicken Restaurant", "phone": "+1 213-236-0604", "website": "http://sultanchicken.com/"}}, {"type": "node", "id": 2163661646, "lat": 34.0464803, "lon": -118.2524999, "tags": {"amenity": "fast_food", "cuisine": "pizza", "email": "info@kisspizzadeli.com", "name": "Kiss Pizza & Deli", "opening_hours": "Mo-Su 11:00-21:00", "phone": "+1 213-629-5033", "website": "http://www.kisspizzadeli.com/"}}, {"type": "node", "id": 2164029960, "lat": 34.0449584, "lon": -118.253306, "tags": {"alt_name": "Kentucky Fried Chicken", "amenity": "fast_food", "brand": "KFC", "brand:wikidata": "Q524757", "cuisine": "chicken", "name": "KFC", "takeaway": "yes", "website": "https://locations.kfc.com/ca/los-angeles/708-south-broadway"}}, {"type": "node", "id": 2774658102, "lat": 34.0451389, "lon": -118.256586, "tags": {"addr:city": "Los Angeles", "addr:housenumber": "433", "addr:postcode": "90014", "addr:street": "W 8th Street", "amenity": "restaurant", "check_date": "2014-04-07", "currency:XBT": "yes", "name": "Ham & Eggs Tavern", "phone": "+1 213 891 6939", "website": "http://www.hamandeggstavern.com/"}}, {"type": "node", "id": 2983737083, "lat": 34.0459934, "lon": -118.2523539, "tags": {"addr:city": "Los Angeles", "addr:housenumber": "618", "addr:postcode": "90014", "addr:street": "South Broadway", "amenity": "restaurant", "cuisine": "french", "name": "Les Noces de Figaro", "smoking": "no"}}, {"type": "node", "id": 3144591452, "lat": 34.0476428, "lon": -118.2478072, "tags": {"addr:city": "Los Angeles", "addr:housenumber": "421", "addr:postcode": "90013", "addr:street": "S Main Street", "amenity": "restaurant", "cuisine": "japanese", "name": "Kazu Nori", "opening_hours": "Mo-Th 11:30-23:00;Fr-Sa 11:30-24:00;Su 12:00-22:00"}}, {"type": "node", "id": 3262466437, "lat": 34.0518002, "lon": -118.2518606, "tags": {"amenity": "restaurant", "name": "Blue Cow", "source": "survey;bing_imagery", "source_ref": "The Temecula Mapper"}}, {"type": "node", "id": 3297494612, "lat": 34.0513484, "lon": -118.2511398, "tags": {"amenity": "fast_food", "brand": "Panda Express", "brand:wikidata": "Q1358690", "cuisine": "chinese", "name": "Panda Express", "source": "survey;bing_imagery", "source_ref": "The Temecula Mapper", "takeaway": "yes"}}, {"type": "node", "id": 3358087097, "lat": 34.0471358, "lon": -118.2479565, "tags": {"amenity": "restaurant", "cuisine": "pizza", "name": "Prufrock Pizzaria", "opening_hours": "Mo-Fr 11:00-01:00, Sa-Su 10:00-01:00"}}, {"type": "node", "id": 3449754913, "lat": 34.0447338, "lon": -118.2494253, "tags": {"amenity": "restaurant", "name": "Black Sheep"}}, {"type": "node", "id": 3898615965, "lat": 34.05002, "lon": -118.2567865, "tags": {"amenity": "restaurant", "name": "The Restaurant at The Standard"}}, {"type": "node", "id": 4098578795, "lat": 34.0441948, "lon": -118.25089}, {"type": "node", "id": 4098601256, "lat": 34.0439187, "lon": -118.2511085, "tags": {"addr:city": "Los Angeles", "addr:housenumber": "103", "addr:postcode": "90014", "addr:street": "East 7th Street", "amenity": "restaurant", "cuisine": "mexican", "name": "Margarita's Place"}}, {"type": "node", "id": 4098613027, "lat": 34.0441495, "lon": -118.2508247}, {"type": "node", "id": 4098613030, "lat": 34.0441972, "lon": -118.2508858}, {"type": "node", "id": 4098613031, "lat": 34.0442312, "lon": -118.2508471}, {"type": "node", "id": 4098613032, "lat": 34.0441861, "lon": -118.2507872}, {"type": "node", "id": 4121132649, "lat": 34.0455522, "lon": -118.256161, "tags": {"amenity": "fast_food", "brand": "Domino's", "brand:wikidata": "Q839466", "cuisine": "pizza", "name": "Domino's", "short_name": "Domino's", "takeaway": "yes"}}, {"type": "node", "id": 4271070596, "lat": 34.0505199, "lon": -118.2499494, "tags": {"amenity": "restaurant", "cuisine": "mexican", "name": "Taco House #1"}}, {"type": "node", "id": 4271071824, "lat": 34.0499456, "lon": -118.2484919}, {"type": "node", "id": 4271071825, "lat": 34.0499473, "lon": -118.2484566}, {"type": "node", "id": 4271071826, "lat": 34.0499483, "lon": -118.2484743}, {"type": "node", "id": 4271071828, "lat": 34.0499541, "lon": -118.2484833}, {"type": "node", "id": 4271071829, "lat": 34.0499544, "lon": -118.2484686}, {"type": "node", "id": 4271071834, "lat": 34.0499619, "lon": -118.2485187}, {"type": "node", "id": 4271071835, "lat": 34.0499627, "lon": -118.2484421}, {"type": "node", "id": 4271071836, "lat": 34.0499647, "lon": -118.2484401}, {"type": "node", "id": 4271071838, "lat": 34.0499687, "lon": -118.2485261}, {"type": "node", "id": 4271071839, "lat": 34.0499704, "lon": -118.2484536}, {"type": "node", "id": 4271071840, "lat": 34.0499711, "lon": -118.2485096}, {"type": "node", "id": 4271071841, "lat": 34.0499725, "lon": -118.2484517}, {"type": "node", "id": 4271071842, "lat": 34.0499769, "lon": -118.2485185}, {"type": "node", "id": 4271071843, "lat": 34.0499823, "lon": -118.2484245}, {"type": "node", "id": 4271071844, "lat": 34.049988, "lon": -118.248556}, {"type": "node", "id": 4271071845, "lat": 34.0499893, "lon": -118.2484359}, {"type": "node", "id": 4271071848, "lat": 34.0499912, "lon": -118.2485608}, {"type": "node", "id": 4271071851, "lat": 34.0499962, "lon": -118.2485485}, {"type": "node", "id": 4271071852, "lat": 34.0499992, "lon": -118.2485532}, {"type": "node", "id": 4271071854, "lat": 34.0500002, "lon": -118.2484257}, {"type": "node", "id": 4271071855, "lat": 34.0500111, "lon": -118.2485926}, {"type": "node", "id": 4271071856, "lat": 34.0500144, "lon": -118.2485966}, {"type": "node", "id": 4271071857, "lat": 34.0500195, "lon": -118.2485847}, {"type": "node", "id": 4271071858, "lat": 34.0500223, "lon": -118.248589}, {"type": "node", "id": 4271071860, "lat": 34.0500359, "lon": -118.2486292}, {"type": "node", "id": 4271071862, "lat": 34.0500381, "lon": -118.2486339}, {"type": "node", "id": 4271071863, "lat": 34.0500436, "lon": -118.248622}, {"type": "node", "id": 4271071864, "lat": 34.0500462, "lon": -118.248626}, {"type": "node", "id": 4271071867, "lat": 34.0500593, "lon": -118.2486654}, {"type": "node", "id": 4271071868, "lat": 34.0500629, "lon": -118.2486658}, {"type": "node", "id": 4271071869, "lat": 34.0500674, "lon": -118.2486589}, {"type": "node", "id": 4271071870, "lat": 34.0500684, "lon": -118.2486604}, {"type": "node", "id": 4271071871, "lat": 34.0500694, "lon": -118.2486753}, {"type": "node", "id": 4271071876, "lat": 34.0501195, "lon": -118.2486204}, {"type": "node", "id": 4271071879, "lat": 34.0501228, "lon": -118.248626}, {"type": "node", "id": 4271071880, "lat": 34.0501243, "lon": -118.2486161}, {"type": "node", "id": 4271071929, "lat": 34.0503134, "lon": -118.2476339}, {"type": "node", "id": 4271071930, "lat": 34.0503149, "lon": -118.2476165}, {"type": "node", "id": 4271071931, "lat": 34.0503181, "lon": -118.2475994}, {"type": "node", "id": 4271071932, "lat": 34.0503184, "lon": -118.2476648}, {"type": "node", "id": 4271071933, "lat": 34.0503214, "lon": -118.2476262}, {"type": "node", "id": 4271071934, "lat": 34.0503238, "lon": -118.247608}, {"type": "node", "id": 4271071935, "lat": 34.050326, "lon": -118.2476761}, {"type": "node", "id": 4271071936, "lat": 34.0503279, "lon": -118.2476557}, {"type": "node", "id": 4271071938, "lat": 34.0503343, "lon": -118.2475645}, {"type": "node", "id": 4271071941, "lat": 34.0503362, "lon": -118.2475473}, {"type": "node", "id": 4271071942, "lat": 34.0503416, "lon": -118.2476611}, {"type": "node", "id": 4271071943, "lat": 34.0503422, "lon": -118.2475763}, {"type": "node", "id": 4271071944, "lat": 34.0503424, "lon": -118.2475567}, {"type": "node", "id": 4271071946, "lat": 34.0503437, "lon": -118.2476642}, {"type": "node", "id": 4271071948, "lat": 34.0503534, "lon": -118.2475127}, {"type": "node", "id": 4271071950, "lat": 34.0503563, "lon": -118.2474951}, {"type": "node", "id": 4271071952, "lat": 34.0503607, "lon": -118.2475237}, {"type": "node", "id": 4271071953, "lat": 34.0503622, "lon": -118.2475042}, {"type": "node", "id": 4271071957, "lat": 34.0503798, "lon": -118.2474725}, {"type": "node", "id": 4271071958, "lat": 34.0503858, "lon": -118.2474815}, {"type": "node", "id": 4271071959, "lat": 34.0503887, "lon": -118.2474652}, {"type": "node", "id": 4271071961, "lat": 34.0503942, "lon": -118.2474735}, {"type": "node", "id": 4271071962, "lat": 34.050412, "lon": -118.2474428}, {"type": "node", "id": 4271071965, "lat": 34.0504155, "lon": -118.2475951}, {"type": "node", "id": 4271071967, "lat": 34.0504169, "lon": -118.2475972}, {"type": "node", "id": 4271071969, "lat": 34.050418, "lon": -118.2474518}, {"type": "node", "id": 4271071971, "lat": 34.0504213, "lon": -118.2474349}, {"type": "node", "id": 4271071975, "lat": 34.0504268, "lon": -118.2474433}, {"type": "node", "id": 4271071980, "lat": 34.0504455, "lon": -118.2474116}, {"type": "node", "id": 4271071982, "lat": 34.0504516, "lon": -118.2474208}, {"type": "node", "id": 4271071984, "lat": 34.0504596, "lon": -118.2474132}, {"type": "node", "id": 4271071985, "lat": 34.0504667, "lon": -118.2474239}, {"type": "node", "id": 4271071986, "lat": 34.0504749, "lon": -118.247416}, {"type": "node", "id": 4271071988, "lat": 34.0504896, "lon": -118.2474541}, {"type": "node", "id": 4271071990, "lat": 34.0504917, "lon": -118.2474573}, {"type": "node", "id": 4271071991, "lat": 34.0504961, "lon": -118.2474478}, {"type": "node", "id": 4271071992, "lat": 34.0504979, "lon": -118.2474513}, {"type": "node", "id": 4271071996, "lat": 34.0505109, "lon": -118.2474918}, {"type": "node", "id": 4271071997, "lat": 34.0505181, "lon": -118.2475029}, {"type": "node", "id": 4271071998, "lat": 34.0505194, "lon": -118.2474835}, {"type": "node", "id": 4271751937, "lat": 34.0452878, "lon": -118.2552524}, {"type": "node", "id": 4271751949, "lat": 34.0453317, "lon": -118.2552125}, {"type": "node", "id": 4271751970, "lat": 34.0453681, "lon": -118.255381}, {"type": "node", "id": 4271751981, "lat": 34.0454119, "lon": -118.2553411}, {"type": "node", "id": 4271752078, "lat": 34.0457808, "lon": -118.2561122}, {"type": "node", "id": 4271752975, "lat": 34.0470391, "lon": -118.2559867}, {"type": "node", "id": 4271753023, "lat": 34.0470987, "lon": -118.2560791}, {"type": "node", "id": 4271753085, "lat": 34.0471937, "lon": -118.2558448}, {"type": "node", "id": 4271753099, "lat": 34.0472227, "lon": -118.2559662}, {"type": "node", "id": 4271753136, "lat": 34.0472712, "lon": -118.2557737}, {"type": "node", "id": 4271753169, "lat": 34.047332, "lon": -118.2558666}, {"type": "node", "id": 4271754944, "lat": 34.051037, "lon": -118.2574991}, {"type": "node", "id": 4271754945, "lat": 34.05104, "lon": -118.2574579}, {"type": "node", "id": 4271754947, "lat": 34.0510555, "lon": -118.2574817}, {"type": "node", "id": 4271754960, "lat": 34.0512215, "lon": -118.2577823}, {"type": "node", "id": 4271754961, "lat": 34.0512381, "lon": -118.2577666}, {"type": "node", "id": 4271754962, "lat": 34.0512586, "lon": -118.257798}, {"type": "node", "id": 4271754968, "lat": 34.0512, "lon": -118.25732}, {"type": "node", "id": 4271754987, "lat": 34.0514169, "lon": -118.2576408}, {"type": "node", "id": 4281238082, "lat": 34.0524845, "lon": -118.252371, "tags": {"amenity": "restaurant", "brand": "California Pizza Kitchen", "brand:wikidata": "Q15109854", "cuisine": "pizza", "name": "California Pizza Kitchen", "short_name": "CPK"}}, {"type": "node", "id": 4465168798, "lat": 34.0511544, "lon": -118.2545533, "tags": {"addr:housenumber": "633", "addr:postcode": "90071", "addr:street": "West 5th Street", "amenity": "restaurant", "cuisine": "american", "name": "71Above", "phone": "+1 (213) 712-2683", "website": "https://www.71above.com/"}}, {"type": "node", "id": 4624144790, "lat": 34.0489443, "lon": -118.2513974, "tags": {"addr:country": "US", "amenity": "restaurant", "name": "Perch", "name:en": "Perch"}}, {"type": "node", "id": 4885688169, "lat": 34.0461935, "lon": -118.2515346, "tags": {"amenity": "restaurant", "name": "D-Town Burger Bar"}}, {"type": "node", "id": 4885688171, "lat": 34.0461288, "lon": -118.2509892, "tags": {"addr:city": "Los Angeles", "addr:country": "US", "addr:housenumber": "557", "addr:street": "South Spring Street", "amenity": "restaurant", "cuisine": "sandwich", "name": "Springtime in New York Cafe", "phone": "+1 310 256 2400"}}, {"type": "node", "id": 4944285614, "lat": 34.0479408, "lon": -118.2563218, "tags": {"amenity": "restaurant", "cuisine": "american", "name": "Karl Strauss Brewing Company"}}, {"type": "node", "id": 5309210204, "lat": 34.0466095, "lon": -118.2569522, "tags": {"addr:city": "Los Angeles", "addr:housenumber": "750", "addr:postcode": "90017", "addr:state": "CA", "addr:street": "South Grand Avenue", "amenity": "restaurant", "name": "fundamental"}}, {"type": "node", "id": 5335300438, "lat": 34.0508455, "lon": -118.249442, "tags": {"amenity": "fast_food", "cuisine": "barbecue", "name": "Maple Block Meat Co."}}, {"type": "node", "id": 5335740033, "lat": 34.0521739, "lon": -118.2516405, "tags": {"amenity": "fast_food", "cuisine": "poke", "name": "Pok\u00e9 Bar"}}, {"type": "node", "id": 5335740034, "lat": 34.0521128, "lon": -118.2512885, "tags": {"amenity": "fast_food", "cuisine": "grilled_cheese", "name": "Asiago"}}, {"type": "node", "id": 5335740035, "lat": 34.0521272, "lon": -118.2515667, "tags": {"amenity": "fast_food", "cuisine": "greek", "name": "Georges Greek Grill"}}, {"type": "node", "id": 5335740036, "lat": 34.0520752, "lon": -118.25147, "tags": {"amenity": "fast_food", "name": "Earl of Sandwich"}}, {"type": "node", "id": 5335740037, "lat": 34.0520227, "lon": -118.2513723, "tags": {"amenity": "fast_food", "name": "Mixt"}}, {"type": "node", "id": 5335740038, "lat": 34.0522027, "lon": -118.251204, "tags": {"amenity": "fast_food", "cuisine": "juice", "name": "Pressed Juicery"}}, {"type": "node", "id": 5338488655, "lat": 34.0514794, "lon": -118.253287, "tags": {"addr:city": "Los Angeles", "addr:housenumber": "401", "addr:postcode": "90071", "addr:state": "CA", "addr:street": "South Grand Avenue", "amenity": "restaurant", "cuisine": "mexican;seafood", "name": "Pez Cantina", "opening_hours": "Mo 11:30-14:30; Tu-Th 11:30-21:00; Fr 11:30-23:00; Sa 11:00-23:00", "phone": "+1-213-258-2280", "website": "https://www.pezcantina.com"}}, {"type": "node", "id": 5338488657, "lat": 34.0505562, "lon": -118.254112, "tags": {"amenity": "fast_food", "brand": "Sweetgreen", "brand:wikidata": "Q18636413", "cuisine": "salad", "name": "Sweetgreen", "takeaway": "yes"}}, {"type": "node", "id": 5338489421, "lat": 34.0512974, "lon": -118.2544323, "tags": {"amenity": "restaurant", "cuisine": "asian", "name": "LiOrient"}}, {"type": "node", "id": 5338489422, "lat": 34.0494205, "lon": -118.253165, "tags": {"amenity": "restaurant", "cuisine": "singaporean", "name": "Bugis Street"}}, {"type": "node", "id": 5444241170, "lat": 34.0515607, "lon": -118.2574751}, {"type": "node", "id": 5444241171, "lat": 34.0515385, "lon": -118.2574939}, {"type": "node", "id": 5444241172, "lat": 34.0515507, "lon": -118.2575153}, {"type": "node", "id": 5444241173, "lat": 34.0513396, "lon": -118.2571935}, {"type": "node", "id": 5444241174, "lat": 34.0513563, "lon": -118.2572203}, {"type": "node", "id": 5444241175, "lat": 34.0513796, "lon": -118.2571988}, {"type": "node", "id": 5448504144, "lat": 34.0519629, "lon": -118.2542906, "tags": {"amenity": "fast_food", "cuisine": "breakfast", "name": "Z's Crazy Good"}}, {"type": "node", "id": 5707588917, "lat": 34.0444877, "lon": -118.2560652, "tags": {"addr:city": "Los Angeles", "addr:housenumber": "400", "addr:postcode": "90014", "addr:state": "CA", "addr:street": "West 8th Street", "amenity": "fast_food", "brand": "Shake Shack", "brand:wikidata": "Q1058722", "cuisine": "burger", "name": "Shake Shack", "opening_hours": "11:00-21:00", "outdoor_seating": "no", "takeaway": "yes", "website": "https://www.shakeshack.com/location/downtown-la-ca/"}}, {"type": "node", "id": 5860077085, "lat": 34.0506567, "lon": -118.2485745, "tags": {"addr:city": "Los Angeles", "addr:housenumber": "317", "addr:postcode": "90013", "addr:state": "CA", "addr:street": "South Broadway", "amenity": "fast_food", "brand": "Eggslut", "brand:wikidata": "Q17239262", "cuisine": "burger", "name": "Eggslut", "opening_hours": "Mo-Su 08:00-14:00", "takeaway": "yes"}}, {"type": "node", "id": 5893930485, "lat": 34.0451038, "lon": -118.2565154, "tags": {"amenity": "restaurant", "cuisine": "italian", "name": "Colori Kitchen"}}, {"type": "node", "id": 6478808342, "lat": 34.0472147, "lon": -118.2569556, "tags": {"addr:city": "Los Angeles", "addr:housenumber": "707", "addr:postcode": "90017", "addr:state": "CA", "addr:street": "South Grand Avenue", "amenity": "restaurant", "name": "Le Grand"}}, {"type": "node", "id": 6478808345, "lat": 34.0450878, "lon": -118.2571353, "tags": {"addr:city": "Los Angeles", "addr:housenumber": "801", "addr:postcode": "90014", "addr:state": "CA", "addr:street": "South Olive Street", "amenity": "restaurant", "cuisine": "mexican", "name": "Tocaya Organica", "phone": "(213) 262-1805", "website": "https://www.tocaya.com/"}}, {"type": "node", "id": 6479011115, "lat": 34.0499127, "lon": -118.2494803, "tags": {"addr:city": "Los Angeles", "addr:housenumber": "363", "addr:postcode": "90013", "addr:state": "CA", "addr:street": "South Broadway", "amenity": "restaurant", "name": "Buddy's"}}, {"type": "node", "id": 6479011117, "lat": 34.0483437, "lon": -118.254378, "tags": {"addr:city": "Los Angeles", "addr:housenumber": "505", "addr:postcode": "90014", "addr:state": "CA", "addr:street": "West 6th Street", "amenity": "fast_food", "brand": "Tender Greens", "brand:wikidata": "Q113585516", "cuisine": "salad", "name": "Tender Greens", "takeaway": "yes"}}, {"type": "node", "id": 6479011120, "lat": 34.0491382, "lon": -118.254632, "tags": {"addr:city": "Los Angeles", "addr:housenumber": "544", "addr:postcode": "90071", "addr:state": "CA", "addr:street": "South Grand Avenue", "amenity": "restaurant", "brand:wikidata": "Q21016322", "name": "Water Grill"}}, {"type": "node", "id": 6479139840, "lat": 34.0449405, "lon": -118.2567858, "tags": {"addr:city": "Los Angeles", "addr:housenumber": "416", "addr:postcode": "90014", "addr:state": "CA", "addr:street": "West 8th Street", "amenity": "restaurant", "name": "The Exchange"}}, {"type": "node", "id": 6479139841, "lat": 34.0484337, "lon": -118.2479229, "tags": {"addr:city": "Los Angeles", "addr:housenumber": "122", "addr:postcode": "90013", "addr:state": "CA", "addr:street": "West 4th Street", "amenity": "restaurant", "check_date": "2023-06-23", "name": "Orsa & Winston"}}, {"type": "node", "id": 6481705990, "lat": 34.0467022, "lon": -118.2509988, "tags": {"addr:city": "Los Angeles", "addr:country": "US", "addr:housenumber": "541", "addr:postcode": "90013", "addr:state": "CA", "addr:street": "South Spring Street", "addr:unit": "110", "amenity": "restaurant", "name": "Blu Jam Cafe"}}, {"type": "node", "id": 6481712721, "lat": 34.0457231, "lon": -118.2514585, "tags": {"addr:city": "Los Angeles", "addr:country": "US", "addr:housenumber": "615", "addr:postcode": "90014", "addr:state": "CA", "addr:street": "South Spring Street", "amenity": "restaurant", "name": "Silverlake Ramen"}}, {"type": "node", "id": 6481719097, "lat": 34.0471231, "lon": -118.256087, "tags": {"addr:city": "Los Angeles", "addr:housenumber": "523", "addr:postcode": "90017", "addr:state": "CA", "addr:street": "West 7th Street", "amenity": "restaurant", "cuisine": "vietnamese", "name": "Little Sister"}}, {"type": "node", "id": 6481719098, "lat": 34.0465999, "lon": -118.2506512, "tags": {"addr:city": "Los Angeles", "addr:country": "US", "addr:housenumber": "541", "addr:postcode": "90013", "addr:state": "CA", "addr:street": "South Spring Street", "addr:unit": "101", "amenity": "restaurant", "name": "Guisados"}}, {"type": "node", "id": 6483335738, "lat": 34.047635, "lon": -118.250921, "tags": {"addr:city": "Los Angeles", "addr:country": "US", "addr:housenumber": "510", "addr:postcode": "90013", "addr:state": "CA", "addr:street": "South Broadway", "amenity": "restaurant", "cuisine": "mexican", "name": "Mezcalero DTLA"}}, {"type": "node", "id": 6483338198, "lat": 34.0446502, "lon": -118.2493012, "tags": {"addr:city": "Los Angeles", "addr:housenumber": "118", "addr:postcode": "90014", "addr:state": "CA", "addr:street": "East 6th Street", "amenity": "restaurant", "name": "The Varnish"}}, {"type": "node", "id": 6483338537, "lat": 34.04835, "lon": -118.2485614, "tags": {"addr:city": "Los Angeles", "addr:country": "US", "addr:housenumber": "418", "addr:postcode": "90013", "addr:state": "CA", "addr:street": "South Spring Street", "amenity": "restaurant", "name": "Le Petit Paris"}}, {"type": "node", "id": 6483340746, "lat": 34.0508287, "lon": -118.2538557, "tags": {"addr:city": "Los Angeles", "addr:housenumber": "601", "addr:postcode": "90071", "addr:state": "CA", "addr:street": "West 5th Street", "addr:unit": "201", "amenity": "restaurant", "name": "Bunker Hill Bar and Grill"}}, {"type": "node", "id": 6483344868, "lat": 34.0523949, "lon": -118.2560953, "tags": {"addr:city": "Los Angeles", "addr:housenumber": "404", "addr:postcode": "90071", "addr:state": "CA", "addr:street": "Figueroa Street", "amenity": "restaurant", "name": "Bonaventure Brewing Company"}}, {"type": "node", "id": 6483346476, "lat": 34.047082, "lon": -118.2503445, "tags": {"addr:city": "Los Angeles", "addr:housenumber": "519", "addr:postcode": "90013", "addr:state": "CA", "addr:street": "South Spring Street", "amenity": "restaurant", "name": "The Wolves"}}, {"type": "node", "id": 6486195542, "lat": 34.0443038, "lon": -118.2574116, "tags": {"addr:city": "Los Angeles", "addr:housenumber": "832", "addr:postcode": "90014", "addr:state": "CA", "addr:street": "Olive Street", "amenity": "restaurant", "name": "Modern Times Dankness Dojo"}}, {"type": "node", "id": 6486195543, "lat": 34.045055, "lon": -118.2494079, "tags": {"addr:city": "Los Angeles", "addr:housenumber": "107", "addr:postcode": "90014", "addr:state": "CA", "addr:street": "East 6th Street", "amenity": "restaurant", "name": "Las Perlas"}}, {"type": "node", "id": 7396358385, "lat": 34.0506291, "lon": -118.248647, "tags": {"addr:city": "Los Angeles", "addr:housenumber": "317", "addr:postcode": "90013", "addr:state": "CA", "addr:street": "South Broadway", "amenity": "fast_food", "cuisine": "german;hot_dog", "name": "Berlin Currywurst"}}, {"type": "node", "id": 7431761485, "lat": 34.0449861, "lon": -118.2563628, "tags": {"air_conditioning": "yes", "amenity": "restaurant", "bar": "no", "cuisine": "burger", "name": "Cassell's Hamburger", "outdoor_seating": "no", "smoking": "no", "takeaway": "yes", "wheelchair": "limited"}}, {"type": "node", "id": 7578844385, "lat": 34.0437958, "lon": -118.2526952, "tags": {"amenity": "restaurant", "name": "Funculo"}}, {"type": "node", "id": 8300188910, "lat": 34.0522503, "lon": -118.2507429, "tags": {"amenity": "restaurant", "name": "Noe"}}, {"type": "node", "id": 8385994260, "lat": 34.0524418, "lon": -118.2557921, "tags": {"amenity": "restaurant", "name": "LA Prime"}}, {"type": "node", "id": 8386037682, "lat": 34.0495508, "lon": -118.25402, "tags": {"amenity": "restaurant", "name": "Smeraldi\u2019s Restaurant"}}, {"type": "node", "id": 8406561728, "lat": 34.0437958, "lon": -118.2566287}, {"type": "node", "id": 8406561729, "lat": 34.0438436, "lon": -118.2567066}, {"type": "node", "id": 8406561730, "lat": 34.0438773, "lon": -118.2566764}, {"type": "node", "id": 8406561731, "lat": 34.0438295, "lon": -118.2565986}, {"type": "node", "id": 8406620933, "lat": 34.0451824, "lon": -118.256645, "tags": {"alt_name": "Dunkin' Donuts", "amenity": "fast_food", "brand": "Dunkin'", "brand:wikidata": "Q847743", "contact:website": "https://locations.dunkindonuts.com/en/ca/los-angeles/754-s-olive-st/354452", "cuisine": "donut;coffee_shop", "name": "Dunkin'", "takeaway": "yes"}}, {"type": "node", "id": 8406620934, "lat": 34.0458202, "lon": -118.2560755}, {"type": "node", "id": 8406620935, "lat": 34.0457762, "lon": -118.2560066}, {"type": "node", "id": 8406620936, "lat": 34.0457368, "lon": -118.2560433}, {"type": "node", "id": 8971277111, "lat": 34.0507256, "lon": -118.24881, "tags": {"addr:city": "Los Angeles", "addr:housenumber": "317", "addr:postcode": "90013", "addr:state": "CA", "addr:street": "South Broadway", "amenity": "fast_food", "check_date": "2023-11-16", "cuisine": "thai", "name": "Sticky Rice"}}, {"type": "node", "id": 8971277113, "lat": 34.0508855, "lon": -118.2488566, "tags": {"addr:city": "Los Angeles", "addr:housenumber": "317", "addr:postcode": "90013", "addr:state": "CA", "addr:street": "South Broadway", "amenity": "fast_food", "check_date": "2023-11-16", "cuisine": "salvadoran", "name": "Sarita's Pupuseria"}}, {"type": "node", "id": 8971277114, "lat": 34.0509311, "lon": -118.249042, "tags": {"addr:city": "Los Angeles", "addr:housenumber": "317", "addr:postcode": "90013", "addr:state": "CA", "addr:street": "South Broadway", "amenity": "fast_food", "cuisine": "japanese", "name": "Bento Ya"}}, {"type": "node", "id": 8971277115, "lat": 34.0471655, "lon": -118.2517764, "tags": {"amenity": "fast_food", "cuisine": "donut", "name": "Donut Friend"}}, {"type": "node", "id": 9886542562, "lat": 34.050844, "lon": -118.2489922, "tags": {"addr:city": "Los Angeles", "addr:housenumber": "317", "addr:postcode": "90013", "addr:state": "CA", "addr:street": "South Broadway", "amenity": "fast_food", "check_date": "2023-11-16", "cuisine": "burger", "name": "For the Win", "payment:cash": "no", "payment:credit_cards": "yes", "payment:debit_cards": "yes", "wheelchair": "yes"}}, {"type": "node", "id": 10270352163, "lat": 34.0500837, "lon": -118.254343, "tags": {"amenity": "fast_food", "brand": "Sweetgreen", "brand:wikidata": "Q18636413", "cuisine": "salad", "name": "Sweetgreen", "takeaway": "yes"}}, {"type": "node", "id": 10744639063, "lat": 34.0476027, "lon": -118.2568067, "tags": {"amenity": "restaurant", "cuisine": "peruvian", "name": "Inka Wasi"}}, {"type": "node", "id": 10744639064, "lat": 34.0477039, "lon": -118.2569414, "tags": {"amenity": "fast_food", "cuisine": "chicken;armenian", "name": "Zankou Chicken"}}, {"type": "node", "id": 10744639067, "lat": 34.0468311, "lon": -118.2562024, "tags": {"amenity": "restaurant", "cuisine": "steak_house;brazilian", "name": "HH Brazilian Steakhouse"}}, {"type": "node", "id": 10744639068, "lat": 34.0467727, "lon": -118.2561016, "tags": {"amenity": "restaurant", "brand": "Gyu-Kaku", "brand:wikidata": "Q11349387", "cuisine": "japanese;barbecue", "name": "Gyu-Kaku"}}, {"type": "node", "id": 10744639070, "lat": 34.0456057, "lon": -118.2537266, "tags": {"amenity": "restaurant", "cuisine": "pizza", "name": "Pizza Italia"}}, {"type": "node", "id": 10744639071, "lat": 34.0453547, "lon": -118.253902, "tags": {"amenity": "restaurant", "cuisine": "pizza", "name": "Corleone Pizza"}}, {"type": "node", "id": 10744639072, "lat": 34.0460044, "lon": -118.2536434, "tags": {"amenity": "fast_food", "cuisine": "sandwich", "name": "Saint Vincent Deli"}}, {"type": "node", "id": 10744639073, "lat": 34.0470984, "lon": -118.2513852, "tags": {"amenity": "restaurant", "cuisine": "sushi", "name": "Mikaza"}}, {"type": "node", "id": 10744639077, "lat": 34.0481518, "lon": -118.2510657, "tags": {"amenity": "fast_food", "cuisine": "caribbean", "name": "NYC Caribbean"}}, {"type": "node", "id": 10744639078, "lat": 34.048898, "lon": -118.2514631, "tags": {"amenity": "restaurant", "cuisine": "sushi", "name": "Mrs. Fish"}}, {"type": "node", "id": 10746685272, "lat": 34.0508983, "lon": -118.2490732, "tags": {"addr:city": "Los Angeles", "addr:housenumber": "317", "addr:postcode": "90013", "addr:state": "CA", "addr:street": "South Broadway", "amenity": "fast_food", "cuisine": "mexican", "name": "Ana Maria"}}, {"type": "node", "id": 10746685278, "lat": 34.0509769, "lon": -118.2492351, "tags": {"addr:city": "Los Angeles", "addr:housenumber": "317", "addr:postcode": "90013", "addr:state": "CA", "addr:street": "South Broadway", "amenity": "fast_food", "check_date": "2023-11-16", "cuisine": "chinese", "name": "China Cafe"}}, {"type": "node", "id": 10746685280, "lat": 34.0505078, "lon": -118.2487314, "tags": {"addr:city": "Los Angeles", "addr:housenumber": "317", "addr:postcode": "90013", "addr:state": "CA", "addr:street": "South Broadway", "amenity": "fast_food", "cuisine": "donut", "name": "Donut Man"}}, {"type": "node", "id": 10746685286, "lat": 34.0507307, "lon": -118.2490418, "tags": {"addr:city": "Los Angeles", "addr:housenumber": "317", "addr:postcode": "90013", "addr:state": "CA", "addr:street": "South Broadway", "amenity": "fast_food", "check_date": "2023-11-16", "cuisine": "breakfast;burger;sandwich", "name": "Jose Chiquito"}}, {"type": "node", "id": 10746685287, "lat": 34.0507419, "lon": -118.2485181, "tags": {"addr:city": "Los Angeles", "addr:housenumber": "317", "addr:postcode": "90013", "addr:state": "CA", "addr:street": "South Broadway", "amenity": "fast_food", "cuisine": "juice", "name": "The Juice"}}, {"type": "node", "id": 10746685288, "lat": 34.0506077, "lon": -118.2488856, "tags": {"addr:city": "Los Angeles", "addr:housenumber": "317", "addr:postcode": "90013", "addr:state": "CA", "addr:street": "South Broadway", "amenity": "fast_food", "cuisine": "pasta", "name": "Knead and Co."}}, {"type": "node", "id": 10746685291, "lat": 34.0509239, "lon": -118.2489574, "tags": {"addr:city": "Los Angeles", "addr:housenumber": "317", "addr:postcode": "90013", "addr:state": "CA", "addr:street": "South Broadway", "amenity": "fast_food", "check_date": "2023-11-16", "cuisine": "mexican", "name": "La Tostaderia"}}, {"type": "node", "id": 10746685292, "lat": 34.0508437, "lon": -118.2486845, "tags": {"addr:city": "Los Angeles", "addr:housenumber": "317", "addr:postcode": "90013", "addr:state": "CA", "addr:street": "South Broadway", "amenity": "fast_food", "check_date": "2023-11-16", "cuisine": "chicken", "name": "Lucky Bird"}}, {"type": "node", "id": 10746685293, "lat": 34.0506873, "lon": -118.2488454, "tags": {"addr:city": "Los Angeles", "addr:housenumber": "317", "addr:postcode": "90013", "addr:state": "CA", "addr:street": "South Broadway", "amenity": "fast_food", "check_date": "2023-11-16", "cuisine": "asian;sandwich", "name": "Moon Rabbit"}}, {"type": "node", "id": 10746685294, "lat": 34.0507456, "lon": -118.2489414, "tags": {"addr:city": "Los Angeles", "addr:housenumber": "317", "addr:postcode": "90013", "addr:state": "CA", "addr:street": "South Broadway", "amenity": "fast_food", "check_date": "2023-11-16", "cuisine": "pizza", "name": "Olio Wood Fired Pizzeria"}}, {"type": "node", "id": 10746685295, "lat": 34.0511528, "lon": -118.2493033, "tags": {"addr:city": "Los Angeles", "addr:housenumber": "317", "addr:postcode": "90013", "addr:state": "CA", "addr:street": "South Broadway", "amenity": "fast_food", "check_date": "2023-11-16", "cuisine": "seafood", "name": "Oyster Gourmet", "seafood": "oyster"}}, {"type": "node", "id": 10746685296, "lat": 34.0509298, "lon": -118.2491279, "tags": {"addr:city": "Los Angeles", "addr:housenumber": "317", "addr:postcode": "90013", "addr:state": "CA", "addr:street": "South Broadway", "amenity": "fast_food", "cuisine": "sandwich", "name": "PBJ LA"}}, {"type": "node", "id": 10746685297, "lat": 34.0506392, "lon": -118.2486923, "tags": {"addr:city": "Los Angeles", "addr:housenumber": "317", "addr:postcode": "90013", "addr:state": "CA", "addr:street": "South Broadway", "amenity": "fast_food", "check_date": "2023-11-16", "cuisine": "noodle;asian", "diet:vegan": "only", "name": "Ramen Hood"}}, {"type": "node", "id": 10746685298, "lat": 34.0510797, "lon": -118.2491771, "tags": {"addr:city": "Los Angeles", "addr:housenumber": "317", "addr:postcode": "90013", "addr:state": "CA", "addr:street": "South Broadway", "amenity": "fast_food", "cuisine": "filipino", "name": "Sari Sari Store"}}, {"type": "node", "id": 10746685299, "lat": 34.050815, "lon": -118.2487381, "tags": {"addr:city": "Los Angeles", "addr:housenumber": "317", "addr:postcode": "90013", "addr:state": "CA", "addr:street": "South Broadway", "amenity": "fast_food", "check_date": "2023-11-16", "cuisine": "korean", "name": "Shiku"}}, {"type": "node", "id": 10746685300, "lat": 34.0507956, "lon": -118.2491592, "tags": {"addr:city": "Los Angeles", "addr:housenumber": "317", "addr:postcode": "90013", "addr:state": "CA", "addr:street": "South Broadway", "amenity": "fast_food", "cuisine": "mexican", "name": "Tacos Tumbras a Tomas"}}, {"type": "node", "id": 10746685303, "lat": 34.0505944, "lon": -118.2486215, "tags": {"addr:city": "Los Angeles", "addr:housenumber": "317", "addr:postcode": "90013", "addr:state": "CA", "addr:street": "South Broadway", "amenity": "fast_food", "cuisine": "mexican", "name": "Villa Moreliana"}}, {"type": "node", "id": 10746685304, "lat": 34.0508528, "lon": -118.248884, "tags": {"addr:city": "Los Angeles", "addr:housenumber": "317", "addr:postcode": "90013", "addr:state": "CA", "addr:street": "South Broadway", "amenity": "fast_food", "check_date": "2023-11-16", "cuisine": "sandwich;jewish", "name": "Wexler's Deli"}}, {"type": "node", "id": 10778794710, "lat": 34.0469295, "lon": -118.246974, "tags": {"addr:housenumber": "425", "addr:postcode": "90013", "addr:street": "South Los Angeles Street", "amenity": "fast_food", "brand": "Subway", "brand:wikidata": "Q244457", "cuisine": "sandwich", "name": "Subway", "takeaway": "yes"}}, {"type": "node", "id": 10778796405, "lat": 34.0467256, "lon": -118.2471943, "tags": {"addr:housenumber": "433", "addr:postcode": "90013", "addr:street": "South Los Angeles Street", "amenity": "restaurant", "cuisine": "mexican", "name": "Authentica Comida Mexicana", "opening_hours": "Mo-Su 08:00-16:00"}}, {"type": "node", "id": 11374434082, "lat": 34.048265, "lon": -118.2468449, "tags": {"amenity": "restaurant", "cuisine": "salad", "name": "Simply Salad"}}, {"type": "way", "id": 407821094, "nodes": [4098613030, 4098613031, 4098613032, 4098613027, 4098578795, 4098613030], "tags": {"addr:city": "Los Angeles", "addr:housenumber": "646", "addr:postcode": "90014", "addr:street": "South Main Street", "amenity": "restaurant", "building": "yes", "building:levels": "1", "name": "Natural Selection"}}, {"type": "way", "id": 427942822, "nodes": [4271071843, 4271071836, 4271071841, 4271071839, 4271071835, 4271071825, 4271071829, 4271071826, 4271071828, 4271071824, 4271071834, 4271071840, 4271071842, 4271071838, 4271071844, 4271071851, 4271071852, 4271071848, 4271071855, 4271071857, 4271071858, 4271071856, 4271071860, 4271071863, 4271071864, 4271071862, 4271071867, 4271071869, 4271071870, 4271071868, 4271071871, 4271071879, 4271071876, 4271071880, 4271071854, 4271071845, 4271071843], "tags": {"access": "yes", "addr:city": "Los Angeles", "addr:housenumber": "332", "addr:postcode": "90013", "addr:state": "CA", "addr:street": "South Broadway", "amenity": "restaurant", "building": "commercial", "building:levels": "1", "cuisine": "pasta", "ele": "89.7", "height": "4.4", "lacounty:ain": "5149019035", "lacounty:bld_id": "486377840685", "name": "Maccheroni Republic", "start_date": "1991", "website": "https://www.maccheronirepublic.com/"}}, {"type": "way", "id": 427942955, "nodes": [4271071996, 4271071998, 4271071992, 4271071990, 4271071988, 4271071991, 4271071986, 4271071985, 4271071984, 4271071982, 4271071980, 4271071971, 4271071975, 4271071969, 4271071962, 4271071959, 4271071961, 4271071958, 4271071957, 4271071950, 4271071953, 4271071948, 4271071952, 4271071941, 4271071944, 4271071938, 4271071943, 4271071931, 4271071934, 4271071930, 4271071933, 4271071929, 4271071936, 4271071932, 4271071935, 4271071942, 4271071946, 4271071965, 4271071967, 4271071997, 4271071996], "tags": {"amenity": "restaurant", "building": "yes", "building:levels": "1", "ele": "90.9", "height": "4.8", "lacounty:ain": "5149019035", "lacounty:bld_id": "486689840823", "name": "The Hon Shabu", "start_date": "1991"}}, {"type": "way", "id": 428021751, "nodes": [4271754987, 4271754968, 4271754945, 4271754947, 4271754944, 4271754960, 4271754961, 4271754962, 4271754987], "tags": {"amenity": "restaurant", "building": "yes", "ele": "105.8", "height": "17.9", "lacounty:ain": "5151023400", "lacounty:bld_id": "483672841146", "name": "Chaya", "start_date": "1971"}}, {"type": "way", "id": 428021841, "nodes": [4271751970, 4271751981, 4271751949, 4271751937, 4271751970], "tags": {"amenity": "restaurant", "building": "commercial", "ele": "99.9", "height": "20.3", "lacounty:ain": "5144013017", "lacounty:bld_id": "484326838987", "name": "Kiku Teriyaki", "start_date": "1963"}}, {"type": "way", "id": 428021875, "nodes": [4271753085, 4271752975, 4271753023, 4271753099, 4271753169, 4271753136, 4271753085], "tags": {"addr:city": "Los Angeles", "addr:housenumber": "521", "addr:postcode": "90014", "addr:state": "CA", "addr:street": "West 7th Street", "amenity": "restaurant", "building": "yes", "cuisine": "sushi", "ele": "100.3", "height": "18.8", "lacounty:ain": "5144003905;5144004035", "lacounty:bld_id": "484138839635;484170839668", "name": "Q", "opening_hours": "Tu-Fr 12:00-13:30, Tu-Sa 18:00-21:00", "phone": "213.225.6285", "start_date": "1979"}}, {"type": "way", "id": 565201938, "nodes": [5444241170, 5444241171, 5444241172, 4271754987, 4271754968, 5444241173, 5444241174, 5444241175, 5444241170], "tags": {"amenity": "restaurant", "building": "yes", "name": "Drago"}}, {"type": "way", "id": 905234091, "nodes": [8406561728, 8406561729, 8406561730, 8406561731, 8406561728], "tags": {"amenity": "restaurant", "building": "yes", "name": "Jemps Burgers"}}, {"type": "way", "id": 905239708, "nodes": [4271752078, 8406620934, 8406620935, 8406620936, 4271752078], "tags": {"amenity": "restaurant", "building": "yes", "building:levels": "1", "name": "Chicas Tacos"}}]}